{
  "type": "FeatureCollection",
  "features": [
    {
      "type": "Feature",
      "properties": {
        "norad_id": 33924,
        "name": "COSMOS 2251 DEB",
        "group": "cosmos-2251-debris",
        "lat": -73.90167430168853,
        "lon": -169.1489476262437,
        "alt_km": 873.7368479543829,
        "timestamp": "2025-12-05T11:32:56.410269+00:00",
        "meta_object_name": "COSMOS 2251 DEB",
        "meta_object_id": "1993-036ED",
        "meta_epoch": "2025-12-04T07:30:49.502016",
        "meta_mean_motion": 13.50199211,
        "meta_eccentricity": 0.0404063,
        "meta_inclination": 73.9132,
        "meta_ra_of_asc_node": 283.7464,
        "meta_arg_of_pericenter": 320.6773,
        "meta_mean_anomaly": 36.5615,
        "meta_ephemeris_type": 0,
        "meta_classification_type": "U",
        "meta_norad_cat_id": 33924,
        "meta_element_set_no": 999,
        "meta_rev_at_epoch": 82625,
        "meta_bstar": 0.0020861,
        "meta_mean_motion_dot": 2.189e-05,
        "meta_mean_motion_ddot": 0,
        "tle_line1": "1 33924U 93036ED  25338.31307294  .00002189  00000+0  20861-2 0  9990",
        "tle_line2": "2 33924  73.9132 283.7464 0404063 320.6773  36.5615 13.50199211826258"
      },
      "geometry": {
        "type": "Point",
        "coordinates": [
          -169.1489476262437,
          -73.90167430168853
        ]
      }
    },
    {
      "type": "Feature",
      "properties": {
        "norad_id": 33928,
        "name": "COSMOS 2251 DEB",
        "group": "cosmos-2251-debris",
        "lat": 9.933210845867844,
        "lon": -116.66342719080616,
        "alt_km": 777.8493352887344,
        "timestamp": "2025-12-05T11:32:56.410279+00:00",
        "meta_object_name": "COSMOS 2251 DEB",
        "meta_object_id": "1993-036EH",
        "meta_epoch": "2025-12-04T14:51:47.456928",
        "meta_mean_motion": 14.4738137,
        "meta_eccentricity": 0.0061061,
        "meta_inclination": 73.9259,
        "meta_ra_of_asc_node": 67.8529,
        "meta_arg_of_pericenter": 3.7594,
        "meta_mean_anomaly": 356.4009,
        "meta_ephemeris_type": 0,
        "meta_classification_type": "U",
        "meta_norad_cat_id": 33928,
        "meta_element_set_no": 999,
        "meta_rev_at_epoch": 88527,
        "meta_bstar": 0.00046432,
        "meta_mean_motion_dot": 1.713e-05,
        "meta_mean_motion_ddot": 0,
        "tle_line1": "1 33928U 93036EH  25338.61929927  .00001713  00000+0  46432-3 0  9995",
        "tle_line2": "2 33928  73.9259  67.8529 0061061   3.7594 356.4009 14.47381370885276"
      },
      "geometry": {
        "type": "Point",
        "coordinates": [
          -116.66342719080616,
          9.933210845867844
        ]
      }
    },
    {
      "type": "Feature",
      "properties": {
        "norad_id": 33932,
        "name": "COSMOS 2251 DEB",
        "group": "cosmos-2251-debris",
        "lat": 6.449199800557617,
        "lon": 147.45146455518483,
        "alt_km": 778.8689268547896,
        "timestamp": "2025-12-05T11:32:56.410290+00:00",
        "meta_object_name": "COSMOS 2251 DEB",
        "meta_object_id": "1993-036EM",
        "meta_epoch": "2025-12-04T09:43:02.686080",
        "meta_mean_motion": 14.38720862,
        "meta_eccentricity": 0.0034905,
        "meta_inclination": 74.0335,
        "meta_ra_of_asc_node": 331.2902,
        "meta_arg_of_pericenter": 49.9065,
        "meta_mean_anomaly": 310.514,
        "meta_ephemeris_type": 0,
        "meta_classification_type": "U",
        "meta_norad_cat_id": 33932,
        "meta_element_set_no": 999,
        "meta_rev_at_epoch": 87878,
        "meta_bstar": 0.00084021,
        "meta_mean_motion_dot": 2.572e-05,
        "meta_mean_motion_ddot": 0,
        "tle_line1": "1 33932U 93036EM  25338.40489220  .00002572  00000+0  84021-3 0  9994",
        "tle_line2": "2 33932  74.0335 331.2902 0034905  49.9065 310.5140 14.38720862878781"
      },
      "geometry": {
        "type": "Point",
        "coordinates": [
          147.45146455518483,
          6.449199800557617
        ]
      }
    },
    {
      "type": "Feature",
      "properties": {
        "norad_id": 33933,
        "name": "COSMOS 2251 DEB",
        "group": "cosmos-2251-debris",
        "lat": 19.624876639027587,
        "lon": -112.47242568354837,
        "alt_km": 766.8345670732924,
        "timestamp": "2025-12-05T11:32:56.410299+00:00",
        "meta_object_name": "COSMOS 2251 DEB",
        "meta_object_id": "1993-036EN",
        "meta_epoch": "2025-12-04T16:23:26.886912",
        "meta_mean_motion": 14.3346819,
        "meta_eccentricity": 0.0070828,
        "meta_inclination": 74.0892,
        "meta_ra_of_asc_node": 74.8195,
        "meta_arg_of_pericenter": 85.6569,
        "meta_mean_anomaly": 275.2672,
        "meta_ephemeris_type": 0,
        "meta_classification_type": "U",
        "meta_norad_cat_id": 33933,
        "meta_element_set_no": 999,
        "meta_rev_at_epoch": 87669,
        "meta_bstar": 0.00059038,
        "meta_mean_motion_dot": 1.653e-05,
        "meta_mean_motion_ddot": 0,
        "tle_line1": "1 33933U 93036EN  25338.68295008  .00001653  00000+0  59038-3 0  9993",
        "tle_line2": "2 33933  74.0892  74.8195 0070828  85.6569 275.2672 14.33468190876697"
      },
      "geometry": {
        "type": "Point",
        "coordinates": [
          -112.47242568354837,
          19.624876639027587
        ]
      }
    },
    {
      "type": "Feature",
      "properties": {
        "norad_id": 33934,
        "name": "COSMOS 2251 DEB",
        "group": "cosmos-2251-debris",
        "lat": -31.0915492467883,
        "lon": 104.46050902825417,
        "alt_km": 702.0014074631781,
        "timestamp": "2025-12-05T11:32:56.410309+00:00",
        "meta_object_name": "COSMOS 2251 DEB",
        "meta_object_id": "1993-036EP",
        "meta_epoch": "2025-12-04T12:39:31.457952",
        "meta_mean_motion": 14.58988826,
        "meta_eccentricity": 0.0015985,
        "meta_inclination": 74.037,
        "meta_ra_of_asc_node": 116.2163,
        "meta_arg_of_pericenter": 239.8213,
        "meta_mean_anomaly": 120.1369,
        "meta_ephemeris_type": 0,
        "meta_classification_type": "U",
        "meta_norad_cat_id": 33934,
        "meta_element_set_no": 999,
        "meta_rev_at_epoch": 88619,
        "meta_bstar": 0.0022451,
        "meta_mean_motion_dot": 0.00010545,
        "meta_mean_motion_ddot": 0,
        "tle_line1": "1 33934U 93036EP  25338.52744743  .00010545  00000+0  22451-2 0  9990",
        "tle_line2": "2 33934  74.0370 116.2163 0015985 239.8213 120.1369 14.58988826886194"
      },
      "geometry": {
        "type": "Point",
        "coordinates": [
          104.46050902825417,
          -31.0915492467883
        ]
      }
    },
    {
      "type": "Feature",
      "properties": {
        "norad_id": 33936,
        "name": "COSMOS 2251 DEB",
        "group": "cosmos-2251-debris",
        "lat": -42.695906504920245,
        "lon": -113.31199617435611,
        "alt_km": 679.8088453489909,
        "timestamp": "2025-12-05T11:32:56.410319+00:00",
        "meta_object_name": "COSMOS 2251 DEB",
        "meta_object_id": "1993-036ER",
        "meta_epoch": "2025-12-04T14:47:27.724704",
        "meta_mean_motion": 14.60184095,
        "meta_eccentricity": 0.002807,
        "meta_inclination": 74.0196,
        "meta_ra_of_asc_node": 53.0088,
        "meta_arg_of_pericenter": 209.8422,
        "meta_mean_anomaly": 150.1144,
        "meta_ephemeris_type": 0,
        "meta_classification_type": "U",
        "meta_norad_cat_id": 33936,
        "meta_element_set_no": 999,
        "meta_rev_at_epoch": 88771,
        "meta_bstar": 0.0017721,
        "meta_mean_motion_dot": 8.566e-05,
        "meta_mean_motion_ddot": 0,
        "tle_line1": "1 33936U 93036ER  25338.61629311  .00008566  00000+0  17721-2 0  9999",
        "tle_line2": "2 33936  74.0196  53.0088 0028070 209.8422 150.1144 14.60184095887716"
      },
      "geometry": {
        "type": "Point",
        "coordinates": [
          -113.31199617435611,
          -42.695906504920245
        ]
      }
    },
    {
      "type": "Feature",
      "properties": {
        "norad_id": 33938,
        "name": "COSMOS 2251 DEB",
        "group": "cosmos-2251-debris",
        "lat": 64.45845742686434,
        "lon": -102.50073487061074,
        "alt_km": 736.7440111126216,
        "timestamp": "2025-12-05T11:32:56.410329+00:00",
        "meta_object_name": "COSMOS 2251 DEB",
        "meta_object_id": "1993-036ET",
        "meta_epoch": "2025-12-04T09:13:36.179328",
        "meta_mean_motion": 14.46753624,
        "meta_eccentricity": 0.001687,
        "meta_inclination": 74.0461,
        "meta_ra_of_asc_node": 222.7746,
        "meta_arg_of_pericenter": 305.573,
        "meta_mean_anomaly": 174.1295,
        "meta_ephemeris_type": 0,
        "meta_classification_type": "U",
        "meta_norad_cat_id": 33938,
        "meta_element_set_no": 999,
        "meta_rev_at_epoch": 88279,
        "meta_bstar": 0.0010212,
        "meta_mean_motion_dot": 3.677e-05,
        "meta_mean_motion_ddot": 0,
        "tle_line1": "1 33938U 93036ET  25338.38444652  .00003677  00000+0  10212-2 0  9994",
        "tle_line2": "2 33938  74.0461 222.7746 0016870 305.5730 174.1295 14.46753624882790"
      },
      "geometry": {
        "type": "Point",
        "coordinates": [
          -102.50073487061074,
          64.45845742686434
        ]
      }
    }
  ]
}